[{"OBJECT_NAME":"YAOGAN-36 02B","OBJECT_ID":"2022-133B","EPOCH":"2026-03-09T22:42:31.775904","MEAN_MOTION":15.30199518,"ECCENTRICITY":0.00056841,"INCLINATION":34.9983,"RA_OF_ASC_NODE":22.5268,"ARG_OF_PERICENTER":273.0351,"MEAN_ANOMALY":86.9715,"EPHEMERIS_TYPE":0,"CLASSIFICATION_TYPE":"U","NORAD_CAT_ID":54043,"ELEMENT_SET_NO":999,"REV_AT_EPOCH":18962,"BSTAR":0.00051218814,"MEAN_MOTION_DOT":0.00015352,"MEAN_MOTION_DDOT":0},{"OBJECT_NAME":"STARLINK-31735","OBJECT_ID":"2024-112S","EPOCH":"2026-03-09T10:11:42.446112","MEAN_MOTION":15.30180903,"ECCENTRICITY":0.00012881,"INCLINATION":53.1604,"RA_OF_ASC_NODE":79.393,"ARG_OF_PERICENTER":95.0797,"MEAN_ANOMALY":265.0351,"EPHEMERIS_TYPE":0,"CLASSIFICATION_TYPE":"U","NORAD_CAT_ID":60054,"ELEMENT_SET_NO":999,"REV_AT_EPOCH":9855,"BSTAR":-4.3713601e-5,"MEAN_MOTION_DOT":-1.653e-5,"MEAN_MOTION_DDOT":0}]
